[{"OBJECT_NAME":"SL-8 R/B","OBJECT_ID":"1979-089B","EPOCH":"2026-03-03T13:44:25.059264","MEAN_MOTION":14.42345935,"ECCENTRICITY":0.0017125,"INCLINATION":74.0674,"RA_OF_ASC_NODE":102.3686,"ARG_OF_PERICENTER":275.6578,"MEAN_ANOMALY":84.2626,"EPHEMERIS_TYPE":0,"CLASSIFICATION_TYPE":"U","NORAD_CAT_ID":11574,"ELEMENT_SET_NO":999,"REV_AT_EPOCH":43522,"BSTAR":0.00010634,"MEAN_MOTION_DOT":3.25e-6,"MEAN_MOTION_DDOT":0},{"OBJECT_NAME":"SL-14 R/B","OBJECT_ID":"1980-005B","EPOCH":"2026-03-03T16:29:50.039808","MEAN_MOTION":14.90922044,"ECCENTRICITY":0.0015647,"INCLINATION":82.5155,"RA_OF_ASC_NODE":312.9293,"ARG_OF_PERICENTER":177.8499,"MEAN_ANOMALY":182.2791,"EPHEMERIS_TYPE":0,"CLASSIFICATION_TYPE":"U","NORAD_CAT_ID":11672,"ELEMENT_SET_NO":999,"REV_AT_EPOCH":47559,"BSTAR":7.2909e-5,"MEAN_MOTION_DOT":7.46e-6,"MEAN_MOTION_DDOT":0},{"OBJECT_NAME":"SL-8 R/B","OBJECT_ID":"1981-003B","EPOCH":"2026-03-03T17:00:25.583616","MEAN_MOTION":15.10699071,"ECCENTRICITY":0.0262728,"INCLINATION":82.939,"RA_OF_ASC_NODE":295.5547,"ARG_OF_PERICENTER":199.4098,"MEAN_ANOMALY":159.6988,"EPHEMERIS_TYPE":0,"CLASSIFICATION_TYPE":"U","NORAD_CAT_ID":12139,"ELEMENT_SET_NO":999,"REV_AT_EPOCH":31377,"BSTAR":0.00058012,"MEAN_MOTION_DOT":0.00022464,"MEAN_MOTION_DDOT":0},{"OBJECT_NAME":"SL-3 R/B","OBJECT_ID":"1981-046B","EPOCH":"2026-03-03T17:58:49.749024","MEAN_MOTION":15.41810412,"ECCENTRICITY":0.0020061,"INCLINATION":81.2309,"RA_OF_ASC_NODE":296.8777,"ARG_OF_PERICENTER":42.3691,"MEAN_ANOMALY":317.9096,"EPHEMERIS_TYPE":0,"CLASSIFICATION_TYPE":"U","NORAD_CAT_ID":12465,"ELEMENT_SET_NO":999,"REV_AT_EPOCH":43751,"BSTAR":0.00038248,"MEAN_MOTION_DOT":0.00016358,"MEAN_MOTION_DDOT":0},{"OBJECT_NAME":"SL-3 R/B","OBJECT_ID":"1981-103B","EPOCH":"2026-03-03T18:53:18.871008","MEAN_MOTION":15.21286648,"ECCENTRICITY":0.0012502,"INCLINATION":81.1571,"RA_OF_ASC_NODE":220.3559,"ARG_OF_PERICENTER":308.2017,"MEAN_ANOMALY":51.8087,"EPHEMERIS_TYPE":0,"CLASSIFICATION_TYPE":"U","NORAD_CAT_ID":12904,"ELEMENT_SET_NO":999,"REV_AT_EPOCH":97233,"BSTAR":0.00036504,"MEAN_MOTION_DOT":8.204e-5,"MEAN_MOTION_DDOT":0},{"OBJECT_NAME":"SL-3 R/B","OBJECT_ID":"1982-013B","EPOCH":"2026-03-03T17:33:50.347008","MEAN_MOTION":15.21941698,"ECCENTRICITY":0.0022332,"INCLINATION":81.1769,"RA_OF_ASC_NODE":167.7515,"ARG_OF_PERICENTER":197.6776,"MEAN_ANOMALY":162.3682,"EPHEMERIS_TYPE":0,"CLASSIFICATION_TYPE":"U","NORAD_CAT_ID":13068,"ELEMENT_SET_NO":999,"REV_AT_EPOCH":40344,"BSTAR":0.00026834,"MEAN_MOTION_DOT":6.182e-5,"MEAN_MOTION_DDOT":0},{"OBJECT_NAME":"SL-3 R/B","OBJECT_ID":"1982-039B","EPOCH":"2026-03-03T16:38:09.970944","MEAN_MOTION":15.10037867,"ECCENTRICITY":0.0029884,"INCLINATION":81.158,"RA_OF_ASC_NODE":222.8751,"ARG_OF_PERICENTER":343.9984,"MEAN_ANOMALY":16.0294,"EPHEMERIS_TYPE":0,"CLASSIFICATION_TYPE":"U","NORAD_CAT_ID":13154,"ELEMENT_SET_NO":999,"REV_AT_EPOCH":38073,"BSTAR":0.00022329,"MEAN_MOTION_DOT":3.691e-5,"MEAN_MOTION_DDOT":0},{"OBJECT_NAME":"SL-3 R/B","OBJECT_ID":"1982-079B","EPOCH":"2026-03-03T16:40:45.542784","MEAN_MOTION":15.24689614,"ECCENTRICITY":0.0024826,"INCLINATION":81.1474,"RA_OF_ASC_NODE":200.1538,"ARG_OF_PERICENTER":185.0499,"MEAN_ANOMALY":175.0488,"EPHEMERIS_TYPE":0,"CLASSIFICATION_TYPE":"U","NORAD_CAT_ID":13403,"ELEMENT_SET_NO":999,"REV_AT_EPOCH":37678,"BSTAR":0.00036411,"MEAN_MOTION_DOT":9.107e-5,"MEAN_MOTION_DDOT":0},{"OBJECT_NAME":"SL-14 R/B","OBJECT_ID":"1982-092B","EPOCH":"2026-03-03T17:32:33.528768","MEAN_MOTION":14.86659408,"ECCENTRICITY":0.0019382,"INCLINATION":82.5703,"RA_OF_ASC_NODE":146.9721,"ARG_OF_PERICENTER":324.5302,"MEAN_ANOMALY":152.1074,"EPHEMERIS_TYPE":0,"CLASSIFICATION_TYPE":"U","NORAD_CAT_ID":13553,"ELEMENT_SET_NO":999,"REV_AT_EPOCH":32804,"BSTAR":7.0824e-5,"MEAN_MOTION_DOT":6.55e-6,"MEAN_MOTION_DDOT":0},{"OBJECT_NAME":"SL-3 R/B","OBJECT_ID":"1983-010B","EPOCH":"2026-03-03T06:56:56.264640","MEAN_MOTION":15.46076306,"ECCENTRICITY":0.00184672,"INCLINATION":81.1059,"RA_OF_ASC_NODE":10.0905,"ARG_OF_PERICENTER":71.291,"MEAN_ANOMALY":289.0337,"EPHEMERIS_TYPE":0,"CLASSIFICATION_TYPE":"U","NORAD_CAT_ID":13819,"ELEMENT_SET_NO":999,"REV_AT_EPOCH":35695,"BSTAR":0.00039033017,"MEAN_MOTION_DOT":0.00019262,"MEAN_MOTION_DDOT":0},{"OBJECT_NAME":"SL-3 R/B","OBJECT_ID":"1983-075B","EPOCH":"2026-03-03T18:25:35.421312","MEAN_MOTION":15.38242996,"ECCENTRICITY":0.0019723,"INCLINATION":97.6132,"RA_OF_ASC_NODE":67.1214,"ARG_OF_PERICENTER":249.0916,"MEAN_ANOMALY":110.8218,"EPHEMERIS_TYPE":0,"CLASSIFICATION_TYPE":"U","NORAD_CAT_ID":14208,"ELEMENT_SET_NO":999,"REV_AT_EPOCH":32924,"BSTAR":0.00039695,"MEAN_MOTION_DOT":0.00014977,"MEAN_MOTION_DDOT":0},{"OBJECT_NAME":"COSMOS 1536","OBJECT_ID":"1984-013A","EPOCH":"2026-03-03T14:42:22.796640","MEAN_MOTION":15.23730274,"ECCENTRICITY":0.001282,"INCLINATION":82.5438,"RA_OF_ASC_NODE":113.8915,"ARG_OF_PERICENTER":307.3578,"MEAN_ANOMALY":52.6491,"EPHEMERIS_TYPE":0,"CLASSIFICATION_TYPE":"U","NORAD_CAT_ID":14699,"ELEMENT_SET_NO":999,"REV_AT_EPOCH":27169,"BSTAR":0.00034723,"MEAN_MOTION_DOT":8.392e-5,"MEAN_MOTION_DDOT":0},{"OBJECT_NAME":"SL-14 R/B","OBJECT_ID":"1984-027B","EPOCH":"2026-03-03T13:34:13.162368","MEAN_MOTION":14.85968921,"ECCENTRICITY":0.0017893,"INCLINATION":82.5381,"RA_OF_ASC_NODE":250.7582,"ARG_OF_PERICENTER":358.728,"MEAN_ANOMALY":1.3888,"EPHEMERIS_TYPE":0,"CLASSIFICATION_TYPE":"U","NORAD_CAT_ID":14820,"ELEMENT_SET_NO":999,"REV_AT_EPOCH":24672,"BSTAR":6.9372e-5,"MEAN_MOTION_DOT":6.31e-6,"MEAN_MOTION_DDOT":0},{"OBJECT_NAME":"SL-8 R/B","OBJECT_ID":"1985-006B","EPOCH":"2026-03-03T17:55:48.214848","MEAN_MOTION":14.37778344,"ECCENTRICITY":0.0018694,"INCLINATION":74.0434,"RA_OF_ASC_NODE":272.0844,"ARG_OF_PERICENTER":191.2425,"MEAN_ANOMALY":247.4254,"EPHEMERIS_TYPE":0,"CLASSIFICATION_TYPE":"U","NORAD_CAT_ID":15483,"ELEMENT_SET_NO":999,"REV_AT_EPOCH":15317,"BSTAR":7.6492e-5,"MEAN_MOTION_DOT":2.04e-6,"MEAN_MOTION_DDOT":0},{"OBJECT_NAME":"SL-12 R/B(2)","OBJECT_ID":"1985-042D","EPOCH":"2026-03-03T14:16:53.349024","MEAN_MOTION":14.21980541,"ECCENTRICITY":0.0033521,"INCLINATION":71.1064,"RA_OF_ASC_NODE":100.6061,"ARG_OF_PERICENTER":138.1204,"MEAN_ANOMALY":30.3058,"EPHEMERIS_TYPE":0,"CLASSIFICATION_TYPE":"U","NORAD_CAT_ID":15772,"ELEMENT_SET_NO":999,"REV_AT_EPOCH":11352,"BSTAR":0.00010122,"MEAN_MOTION_DOT":1.77e-6,"MEAN_MOTION_DDOT":0},{"OBJECT_NAME":"SL-14 R/B","OBJECT_ID":"1985-069B","EPOCH":"2026-03-03T19:42:43.462368","MEAN_MOTION":14.8642488,"ECCENTRICITY":0.0017959,"INCLINATION":82.5272,"RA_OF_ASC_NODE":30.4506,"ARG_OF_PERICENTER":207.6581,"MEAN_ANOMALY":152.3682,"EPHEMERIS_TYPE":0,"CLASSIFICATION_TYPE":"U","NORAD_CAT_ID":15945,"ELEMENT_SET_NO":999,"REV_AT_EPOCH":17196,"BSTAR":7.8224e-5,"MEAN_MOTION_DOT":7.16e-6,"MEAN_MOTION_DDOT":0},{"OBJECT_NAME":"SL-16 R/B","OBJECT_ID":"1985-097B","EPOCH":"2026-03-03T17:05:06.504576","MEAN_MOTION":14.16599704,"ECCENTRICITY":0.0009957,"INCLINATION":71.0037,"RA_OF_ASC_NODE":153.1384,"ARG_OF_PERICENTER":266.8264,"MEAN_ANOMALY":204.2668,"EPHEMERIS_TYPE":0,"CLASSIFICATION_TYPE":"U","NORAD_CAT_ID":16182,"ELEMENT_SET_NO":999,"REV_AT_EPOCH":8638,"BSTAR":1.9394e-5,"MEAN_MOTION_DOT":-9.0e-8,"MEAN_MOTION_DDOT":0}]
